CAS-2T & KS-1Q          
1 41847U 16066G   23041.94002991  .00003696  00000+0  56078-3 0  9999
2 41847  98.5200 111.0523 0361254 215.8879 141.7552 14.39142188328643
NAYIF-1 (EO-88)         
1 42017U 17008BX  23041.65736851  .00085509  00000+0  16275-2 0  9990
2 42017  97.2353 110.5527 0003652 107.8335 252.3315 15.47908048333724
ZHUHAI-1 02 (CAS-4B)    
1 42759U 17034B   23042.17803605  .00011644  00000+0  63162-3 0  9999
2 42759  43.0171  94.7936 0010627 357.6362 101.2587 15.14506446312513
ZHUHAI-1 01 (CAS-4A)    
1 42761U 17034D   23042.19981403  .00011177  00000+0  60458-3 0  9993
2 42761  43.0166  93.2719 0010990   0.6610 102.8719 15.14635360312520
MAX VALIER SAT          
1 42778U 17036P   23041.83265623  .00026589  00000+0  84252-3 0  9993
2 42778  97.1763  80.0656 0009297 185.9766 174.1367 15.32656070313334
RADFXSAT (FOX-1B)       
1 43017U 17073E   23041.65093622  .00010492  00000+0  75364-3 0  9999
2 43017  97.6486 291.0387 0242061 126.1501 236.2377 14.83790154282406
FOX-1D (AO-92)          
1 43137U 18004AC  23041.67914307  .00040911  00000+0  11453-2 0  9998
2 43137  97.3429 120.3026 0006172 230.9141 129.1555 15.36506553282823
DIWATA-2B               
1 43678U 18084H   23042.27062639  .00002444  00000+0  24205-3 0  9994
2 43678  97.9987 183.9130 0008774 213.3590 146.7144 14.92778850233470
ES'HAIL 2               
1 43700U 18090A   23042.11229922  .00000156  00000+0  00000+0 0  9991
2 43700   0.0130 130.5596 0002330 231.0337 205.5374  1.00269128 15669
FOX-1CLIFF (AO-95)      
1 43770U 18099N   23041.86878155  .00010481  00000+0  88802-3 0  9998
2 43770  97.5921 106.8416 0013162 187.7734 172.3286 14.98095435228685
ITASAT 1                
1 43786U 18099AE  23041.65230390  .00008794  00000+0  74751-3 0  9997
2 43786  97.5925 107.6553 0014602 182.9299 177.1841 14.98002048228699
JY1SAT (JO-97)          
1 43803U 18099AX  23041.63454115  .00010742  00000+0  89135-3 0  9996
2 43803  97.5883 107.5111 0014227 186.1762 173.9288 14.98882278228729
UWE-4                   
1 43880U 18111E   23041.98722806  .00011074  00000+0  88967-3 0  9990
2 43880  97.6526 309.1880 0012767 238.1775 121.8206 15.00141220223435
NEXUS (FO-99)           
1 43937U 19003F   23041.64281056  .00051871  00000+0  13086-2 0  9992
2 43937  97.1056  71.5060 0017235  25.0195 335.1883 15.39530903226497
PSAT2 (NO-104)          
1 44354U 19036R   23040.94100291  .01723094 -73894-5  10141-2 0  9996
2 44354  28.5109 281.6083 0041725 218.6097 141.1534 16.15203211201786
JAISAT-1                
1 44419U 19038F   23041.48908356  .00037017  00000+0  15604-2 0  9991
2 44419  97.6650  19.7252 0018283  35.7656 324.4800 15.23072825199204
DUCHIFAT-3              
1 44854U 19089C   23041.57780602  .00009912  00000+0  71671-3 0  9992
2 44854  36.9624 126.5562 0007821 358.7479 100.1190 15.03537484173750
CAS-6 (TIANQIN 1)       
1 44881U 19093C   23042.06942332  .00001587  00000+0  20570-3 0  9994
2 44881  97.8726 122.6495 0015864 126.2099 234.0630 14.82123789170111
RS-44 & BREEZE-KM R/B   
1 44909U 19096E   23041.80314288  .00000011  00000+0 -64685-5 0  9991
2 44909  82.5177  71.9247 0218462 122.3213 239.9249 12.79718266145990
ORBITAL FACTORY 2 (OF-2)
1 45113U 19071C   23041.93542991  .00280085  00000+0  18309-2 0  9999
2 45113  51.6298 309.6989 0000584 239.9774 120.1167 15.74437395170474
HUSKYSAT-1 (HO-107)     
1 45119U 19071J   23041.35513687  .00188587  00000+0  17024-2 0  9998
2 45119  51.6320 317.0554 0001661 323.2166  36.8716 15.67002107170313
BY70-2                  
1 45857U 20042B   23042.17127570  .00028877  00000+0  34175-2 0  9991
2 45857  97.9354 122.1314 0009357  63.5441 296.6798 14.84504595140804
SALSAT                  
1 46495U 20068K   23041.43330120  .00008442  00000+0  58058-3 0  9996
2 46495  97.7576 348.3540 0015785 182.5991 177.5156 15.06074049129986
BY70-3                  
1 46839U 20079N   23042.21831123  .00169797  00000+0  17685-2 0  9997
2 46839  97.1665 118.3372 0004538 197.3730 247.1767 15.63998882127217
RADFXSAT-2 (AO-109)     
1 47311U 21002C   23041.91316391  .00038273  00000+0  12315-2 0  9990
2 47311  60.6829 181.3644 0035469 110.4846 250.0059 15.31392094114900
UVSQ-SAT                
1 47438U 21006AB  23041.95315167  .00023911  00000+0  11173-2 0  9992
2 47438  97.4045 101.1507 0011344 159.2627 200.9070 15.19735723113441
DIY-1 (ARDUIQUBE)       
1 47963U 21022AH  23041.66451209  .00092625  00000+0  34406-2 0  9991
2 47963  97.5129 306.6666 0015292  41.1813 319.0576 15.27068196103093
XW-3 (CAS-9)            
1 50466U 21131B   23040.56036002  .00001029  00000+0  35012-3 0  9995
2 50466  98.5610 122.4907 0005256 153.3121 206.8338 14.38666929 59009
TEVEL-3                 
1 50988U 22002E   23042.25780317  .00022516  00000+0  10688-2 0  9990
2 50988  97.4514 110.4896 0008220 323.4894 106.9109 15.19230557 59600
TEVEL-8                 
1 50989U 22002F   23042.07721211  .00022287  00000+0  10603-2 0  9991
2 50989  97.4550 110.3577 0006999 318.3940 130.2789 15.19163128 59571
TEVEL-5                 
1 50998U 22002Q   23042.25738186  .00023480  00000+0  10945-2 0  9995
2 50998  97.4504 110.7448 0008943 314.9294  90.4850 15.19844460 59623
TEVEL-6                 
1 50999U 22002R   23042.26071243  .00023510  00000+0  10955-2 0  9996
2 50999  97.4506 110.7456 0009627 316.1756 114.0566 15.19850932 59620
TEVEL-1                 
1 51013U 22002AF  23042.26446815  .00023431  00000+0  11131-2 0  9994
2 51013  97.4511 110.4559 0006768 315.0149 115.8898 15.19205993 59608
TEVEL-7                 
1 51062U 22002CG  23042.07895611  .00022603  00000+0  10749-2 0  9993
2 51062  97.4543 110.3365 0007733 323.6870 123.7571 15.19169519 59575
TEVEL-4                 
1 51063U 22002CH  23042.08165242  .00021875  00000+0  10415-2 0  9995
2 51063  97.4540 110.3293 0007561 321.5663 125.7512 15.19138175 59570
TEVEL-2                 
1 51069U 22002CP  23042.25965782  .00022597  00000+0  10727-2 0  9995
2 51069  97.4516 110.4676 0007806 321.9828 108.3018 15.19231072 59606
GREENCUBE               
1 53106U 22080B   23034.19933790 -.00000003  00000+0  00000+0 0  9992
2 53106  70.1777   6.2677 0008922 216.5435 143.4616  6.42557193 13147
RS29S (SXC3-2110 CYCLO*)
1 53373U 22096D   23042.19792534  .00032305  00000+0  11024-2 0  9993
2 53373  97.4264 307.7575 0001930  71.5451  31.9488 15.30266428 28364
RS32S (SXC3-212 MONITO*)
1 53374U 22096E   23042.19269266  .00031341  00000+0  10751-2 0  9990
2 53374  97.4254 307.7533 0001464  98.3810   5.2164 15.30106168 28365
RS34S (SXC3-218 KUZBAS*)
1 53375U 22096F   23042.23283830  .00025927  00000+0  91132-3 0  9995
2 53375  97.4269 307.7161 0001591  93.9409  26.4287 15.29349112 28362
RS23S (SXC3-21 UTMN)    
1 53376U 22096G   23042.22481405  .00028261  00000+0  98680-3 0  9992
2 53376  97.4267 307.7274 0002052 117.4155   8.5057 15.29547114 28367
RS28S (SXC3-214 MIET-A*)
1 53377U 22096H   23042.23023284  .00026217  00000+0  92157-3 0  9993
2 53377  97.4262 307.7266 0001923 114.1405  13.1982 15.29344056 28361
RS26S (KAI-1)           
1 53378U 22096J   23042.05342088  .00021450  00000+0  76747-3 0  9991
2 53378  97.4270 307.5021 0001564 117.7504   7.2915 15.28807127 28337
RS19S (SXC3-219 ISOI)   
1 53381U 22096M   23042.23451740  .00026378  00000+0  91156-3 0  9996
2 53381  97.4262 307.8630 0005657 123.3437 355.8503 15.29886767 28373
RS21S (CUBESX-HSE-2)    
1 53383U 22096P   23042.22778447  .00027708  00000+0  95379-3 0  9992
2 53383  97.4264 307.8773 0005624 126.8462 352.8755 15.30004189 28373
RS30S (SXC3-217 SIREN)  
1 53384U 22096Q   23042.18273537  .00023497  00000+0  82102-3 0  9999
2 53384  97.4269 307.7942 0005513 124.7128  20.1013 15.29551314 28365
RS20S (GEOSCAN-EDELVEIS)
1 53385U 22096R   23042.21648655  .00034914  00000+0  11495-2 0  9993
2 53385  97.4265 308.0380 0005659 119.9757   4.2533 15.31397108 28415
RS33S (SXC3-215 VIZARD) 
1 53386U 22096S   23042.19712769  .00039488  00000+0  12483-2 0  9998
2 53386  97.4258 308.2062 0006997 132.5367 331.6135 15.32667022 28412
CAS-5A (FO-118)         
1 54684U 22167C   23042.18333655  .00015857  00000+0  97242-3 0  9992
2 54684  97.5417 181.1125 0015237  50.2635  72.8749 15.10127838  9631
XW-4 (CAS-10)           
1 54816U 21035C   23041.91407054  .00265036  00000+0  15423-2 0  9993
2 54816  41.4780 202.3640 0015456 312.7116  47.2432 15.76724508  8486
